GLOBALSTAR M063 [+]     
1 26081U 00008A   23267.13747730 -.00000059  00000+0  34684-3 0  9999
2 26081  51.9981 336.1276 0004753 178.7874 196.3197 11.86144565 82637
GLOBALSTAR M062 [-]     
1 26082U 00008B   23267.08627321 -.00000014  00000+0  60102-3 0  9992
2 26082  51.9836 154.5224 0006242 198.1952 309.5212 12.43415471 80488
GLOBALSTAR M060 [-]     
1 26083U 00008C   23266.75925667 -.00000189  00000+0 -97351-3 0  9990
2 26083  52.0046  26.0209 0002621 282.1536 229.6291 12.17613657 75490
GLOBALSTAR M064 [-]     
1 26084U 00008D   23266.79277099 -.00000084  00000+0 -44823-5 0  9996
2 26084  52.0021  83.3178 0000701 306.3792  53.6976 11.88509723 92012
GLOBALSTAR M065 [+]     
1 31571U 07020A   23267.18666887 -.00000094  00000+0  51518-4 0  9993
2 31571  51.9920 349.7784 0009914 352.6156  43.3326 12.61952165753912
GLOBALSTAR M069 [+]     
1 31573U 07020C   23266.30476737 -.00000059  00000+0  24872-3 0  9994
2 31573  51.9959 308.6427 0000497 158.7256 280.5072 12.62281256754626
GLOBALSTAR M072 [+]     
1 31574U 07020D   23267.16647028 -.00000096  00000+0  42112-4 0  9992
2 31574  52.0100  41.7124 0001071  91.1566 324.4684 12.62265808753169
GLOBALSTAR M071 [P]     
1 31576U 07020F   23266.33162830 -.00000059  00000+0  24957-3 0  9990
2 31576  52.0079 313.5180 0000979 159.5928 280.7052 12.62268600415818
